{
  "generated_at": "2026-06-18T10:20:31+00:00",
  "source": "celestrak.org",
  "satellite_count": 9,
  "satellites": [
    {
      "id": "terra",
      "name": "TERRA",
      "platform": "EOS",
      "sensor": "MODIS",
      "swath_km": 2330,
      "color": "#39d0d8",
      "norad": 25994,
      "tle1": "1 25994U 99068A   26168.91590209  .00000309  00000+0  71964-4 0  9991",
      "tle2": "2 25994  97.9456 218.4333 0001636 186.9393 276.8108 14.61103628409715"
    },
    {
      "id": "aqua",
      "name": "AQUA",
      "platform": "EOS",
      "sensor": "MODIS",
      "swath_km": 2330,
      "color": "#2bb673",
      "norad": 27424,
      "tle1": "1 27424U 02022A   26168.94355691  .00000608  00000+0  13065-3 0  9991",
      "tle2": "2 27424  98.4277 138.2414 0001072  53.5586   6.3852 14.62159178283385"
    },
    {
      "id": "snpp",
      "name": "SUOMI NPP",
      "platform": "JPSS",
      "sensor": "VIIRS",
      "swath_km": 3000,
      "color": "#ff8c42",
      "norad": 37849,
      "tle1": "1 37849U 11061A   26168.97491799  .00000052  00000+0  45835-4 0  9993",
      "tle2": "2 37849  98.7953 109.8456 0001489   4.8423 355.2767 14.19517523758553"
    },
    {
      "id": "noaa20",
      "name": "NOAA 20",
      "platform": "JPSS",
      "sensor": "VIIRS",
      "swath_km": 3000,
      "color": "#ffaa00",
      "norad": 43013,
      "tle1": "1 43013U 17073A   26168.91765715  .00000047  00000+0  43237-4 0  9996",
      "tle2": "2 43013  98.7770 108.3738 0000298 103.3678 256.7532 14.19511863444571"
    },
    {
      "id": "noaa21",
      "name": "NOAA 21",
      "platform": "JPSS",
      "sensor": "VIIRS",
      "swath_km": 3000,
      "color": "#ff5a3a",
      "norad": 54234,
      "tle1": "1 54234U 22150A   26168.88004819  .00000038  00000+0  38442-4 0  9994",
      "tle2": "2 54234  98.7059 107.6577 0001709 152.4051 207.7216 14.19565562186640"
    },
    {
      "id": "sentinel2a",
      "name": "SENTINEL-2A",
      "platform": "Copernicus",
      "sensor": "MSI",
      "swath_km": 290,
      "color": "#b388ff",
      "norad": 40697,
      "tle1": "1 40697U 15028A   26168.91399321 -.00000128  00000+0 -32206-4 0  9991",
      "tle2": "2 40697  98.5687 243.7552 0001102  89.7477 270.3833 14.30814629573835"
    },
    {
      "id": "sentinel2b",
      "name": "SENTINEL-2B",
      "platform": "Copernicus",
      "sensor": "MSI",
      "swath_km": 290,
      "color": "#9d6dff",
      "norad": 42063,
      "tle1": "1 42063U 17013A   26168.97672326 -.00000070  00000+0 -10238-4 0  9998",
      "tle2": "2 42063  98.5695 243.7400 0001193  87.6805 272.4514 14.30816468484751"
    },
    {
      "id": "sentinel3a",
      "name": "SENTINEL-3A",
      "platform": "Copernicus",
      "sensor": "OLCI",
      "swath_km": 1270,
      "color": "#7a4fff",
      "norad": 41335,
      "tle1": "1 41335U 16011A   26168.91785101  .00000092  00000+0  56225-4 0  9994",
      "tle2": "2 41335  98.6249 236.2911 0001409 101.7809 258.3530 14.26740193538166"
    },
    {
      "id": "sentinel3b",
      "name": "SENTINEL-3B",
      "platform": "Copernicus",
      "sensor": "OLCI",
      "swath_km": 1270,
      "color": "#5e3bff",
      "norad": 43437,
      "tle1": "1 43437U 18039A   26168.82087781  .00000085  00000+0  52992-4 0  9999",
      "tle2": "2 43437  98.6248 236.3440 0000722  90.0659 270.0604 14.26734886424213"
    }
  ]
}